start=new Date('2023-03-12T00:00:00.000Z').valueOf();
sats=[{"RA_OF_ASC_NODE":"91.3131","SEMIMAJOR_AXIS":"6917.885","MEAN_MOTION_DOT":"0.00024720","TIME_SYSTEM":"UTC","NORAD_CAT_ID":"53972","MEAN_ELEMENT_THEORY":"SGP4","DECAY_DATE":null,"RCS_SIZE":"LARGE","APOAPSIS":"540.655","MEAN_ANOMALY":"260.3438","FILE":"3857581","ELEMENT_SET_NO":"999","ARG_OF_PERICENTER":"99.7702","MEAN_MOTION_DDOT":"0.0000000000000","PERIAPSIS":"538.845","PERIOD":"95.438","MEAN_MOTION":"15.08838461","LAUNCH_DATE":"2022-10-05","INCLINATION":"53.2166","BSTAR":"0.00156590000000","OBJECT_TYPE":"PAYLOAD","ECCENTRICITY":"0.00013080","COUNTRY_CODE":"US","REF_FRAME":"TEME","EPOCH":"2023-03-11T11:51:28.712448","TLE_LINE1":"1 53972U 22125J   23070.49408232  .00024720  00000-0  15659-2 0  9995","TLE_LINE2":"2 53972  53.2166  91.3131 0001308  99.7702 260.3438 15.08838461 24203","OBJECT_ID":"2022-125J","OBJECT_NAME":"STARLINK-5157","EPHEMERIS_TYPE":"0","GP_ID":"227860612","CLASSIFICATION_TYPE":"U","REV_AT_EPOCH":"2420","CENTER_NAME":"EARTH","SITE":"AFWTR"},{"TLE_LINE1":"1 53973U 22125K   23070.53495308  .00024289  00000-0  15390-2 0  9993","TLE_LINE2":"2 53973  53.2164  95.8510 0001375  86.3503 273.7646 15.08838193 24141","REF_FRAME":"TEME","COUNTRY_CODE":"US","EPOCH":"2023-03-11T12:50:19.946112","CLASSIFICATION_TYPE":"U","SITE":"AFWTR","CENTER_NAME":"EARTH","REV_AT_EPOCH":"2414","GP_ID":"227858862","OBJECT_NAME":"STARLINK-5156","EPHEMERIS_TYPE":"0","OBJECT_ID":"2022-125K","RCS_SIZE":"LARGE","DECAY_DATE":null,"ELEMENT_SET_NO":"999","ARG_OF_PERICENTER":"86.3503","MEAN_ANOMALY":"273.7646","FILE":"3857581","APOAPSIS":"540.702","RA_OF_ASC_NODE":"95.8510","MEAN_ELEMENT_THEORY":"SGP4","TIME_SYSTEM":"UTC","MEAN_MOTION_DOT":"0.00024289","NORAD_CAT_ID":"53973","SEMIMAJOR_AXIS":"6917.886","BSTAR":"0.00153900000000","INCLINATION":"53.2164","ECCENTRICITY":"0.00013750","OBJECT_TYPE":"PAYLOAD","PERIAPSIS":"538.800","MEAN_MOTION_DDOT":"0.0000000000000","LAUNCH_DATE":"2022-10-05","MEAN_MOTION":"15.08838193","PERIOD":"95.438"},{"TLE_LINE1":"1 53974U 22125L   23070.50363466  .00023029  00000-0  14599-2 0  9991","TLE_LINE2":"2 53974  53.2192  75.7127 0001506 122.3062 237.8076 15.08850469 24420","REF_FRAME":"TEME","COUNTRY_CODE":"US","EPOCH":"2023-03-11T12:05:14.034624","CLASSIFICATION_TYPE":"U","SITE":"AFWTR","REV_AT_EPOCH":"2442","CENTER_NAME":"EARTH","GP_ID":"227859112","OBJECT_ID":"2022-125L","EPHEMERIS_TYPE":"0","OBJECT_NAME":"STARLINK-5159","DECAY_DATE":null,"RCS_SIZE":"LARGE","ELEMENT_SET_NO":"999","ARG_OF_PERICENTER":"122.3062","APOAPSIS":"540.755","FILE":"3857581","MEAN_ANOMALY":"237.8076","RA_OF_ASC_NODE":"75.7127","MEAN_ELEMENT_THEORY":"SGP4","SEMIMAJOR_AXIS":"6917.848","NORAD_CAT_ID":"53974","MEAN_MOTION_DOT":"0.00023029","TIME_SYSTEM":"UTC","BSTAR":"0.00145990000000","INCLINATION":"53.2192","OBJECT_TYPE":"PAYLOAD","ECCENTRICITY":"0.00015060","MEAN_MOTION_DDOT":"0.0000000000000","PERIAPSIS":"538.672","LAUNCH_DATE":"2022-10-05","PERIOD":"95.437","MEAN_MOTION":"15.08850469"},{"TLE_LINE1":"1 53975U 22125M   23070.54712172  .00017026  00000-0  10379-2 0  9990","TLE_LINE2":"2 53975  53.2175  90.9389 0001417  81.7881 278.3273 15.10473164 24288","REF_FRAME":"TEME","COUNTRY_CODE":"US","EPOCH":"2023-03-11T13:07:51.316608","CLASSIFICATION_TYPE":"U","SITE":"AFWTR","CENTER_NAME":"EARTH","REV_AT_EPOCH":"2428","GP_ID":"227861541","OBJECT_NAME":"STARLINK-5137","EPHEMERIS_TYPE":"0","OBJECT_ID":"2022-125M","RCS_SIZE":"LARGE","DECAY_DATE":null,"ARG_OF_PERICENTER":"81.7881","ELEMENT_SET_NO":"999","FILE":"3857610","MEAN_ANOMALY":"278.3273","APOAPSIS":"535.738","RA_OF_ASC_NODE":"90.9389","MEAN_ELEMENT_THEORY":"SGP4","NORAD_CAT_ID":"53975","MEAN_MOTION_DOT":"0.00017026","TIME_SYSTEM":"UTC","SEMIMAJOR_AXIS":"6912.893","BSTAR":"0.00103790000000","INCLINATION":"53.2175","ECCENTRICITY":"0.00014170","OBJECT_TYPE":"PAYLOAD","PERIAPSIS":"533.778","MEAN_MOTION_DDOT":"0.0000000000000","LAUNCH_DATE":"2022-10-05","MEAN_MOTION":"15.10473164","PERIOD":"95.334"},{"MEAN_ANOMALY":"263.8507","FILE":"3857647","APOAPSIS":"540.788","ELEMENT_SET_NO":"999","ARG_OF_PERICENTER":"96.2658","RCS_SIZE":"LARGE","DECAY_DATE":null,"NORAD_CAT_ID":"53976","MEAN_MOTION_DOT":"0.00005804","TIME_SYSTEM":"UTC","SEMIMAJOR_AXIS":"6917.876","MEAN_ELEMENT_THEORY":"SGP4","RA_OF_ASC_NODE":"76.1178","ECCENTRICITY":"0.00015130","OBJECT_TYPE":"PAYLOAD","BSTAR":"0.00038246000000","INCLINATION":"53.2190","MEAN_MOTION":"15.08841331","PERIOD":"95.437","LAUNCH_DATE":"2022-10-05","PERIAPSIS":"538.695","MEAN_MOTION_DDOT":"0.0000000000000","TLE_LINE2":"2 53976  53.2190  76.1178 0001513  96.2658 263.8507 15.08841331 24481","TLE_LINE1":"1 53976U 22125N   23070.45309397  .00005804  00000-0  38246-3 0  9997","EPOCH":"2023-03-11T10:52:27.319008","COUNTRY_CODE":"US","REF_FRAME":"TEME","CENTER_NAME":"EARTH","REV_AT_EPOCH":"2448","SITE":"AFWTR","CLASSIFICATION_TYPE":"U","OBJECT_NAME":"STARLINK-5134","EPHEMERIS_TYPE":"0","OBJECT_ID":"2022-125N","GP_ID":"227862463"},{"CLASSIFICATION_TYPE":"U","SITE":"AFWTR","CENTER_NAME":"EARTH","REV_AT_EPOCH":"2417","GP_ID":"227859363","EPHEMERIS_TYPE":"0","OBJECT_NAME":"STARLINK-5094","OBJECT_ID":"2022-125P","TLE_LINE1":"1 53977U 22125P   23070.29071820 -.00000646  00000-0 -22520-4 0  9997","TLE_LINE2":"2 53977  53.2169  92.1771 0001498  87.6098 272.5066 15.08828822 24172","REF_FRAME":"TEME","COUNTRY_CODE":"US","EPOCH":"2023-03-11T06:58:38.052480","BSTAR":"-0.00002252000000","INCLINATION":"53.2169","ECCENTRICITY":"0.00014980","OBJECT_TYPE":"PAYLOAD","PERIAPSIS":"538.743","MEAN_MOTION_DDOT":"0.0000000000000","LAUNCH_DATE":"2022-10-05","MEAN_MOTION":"15.08828822","PERIOD":"95.438","RCS_SIZE":"LARGE","DECAY_DATE":null,"ELEMENT_SET_NO":"999","ARG_OF_PERICENTER":"87.6098","MEAN_ANOMALY":"272.5066","FILE":"3857581","APOAPSIS":"540.816","RA_OF_ASC_NODE":"92.1771","MEAN_ELEMENT_THEORY":"SGP4","MEAN_MOTION_DOT":"-0.00000646","NORAD_CAT_ID":"53977","TIME_SYSTEM":"UTC","SEMIMAJOR_AXIS":"6917.915"},{"REV_AT_EPOCH":"2421","CENTER_NAME":"EARTH","SITE":"AFWTR","CLASSIFICATION_TYPE":"U","OBJECT_ID":"2022-125Q","OBJECT_NAME":"STARLINK-5148","EPHEMERIS_TYPE":"0","GP_ID":"227859613","TLE_LINE2":"2 53978  53.2154  90.8597 0001209  95.7346 264.3784 15.08845762 24217","TLE_LINE1":"1 53978U 22125Q   23070.53452800  .00020222  00000-0  12848-2 0  9996","EPOCH":"2023-03-11T12:49:43.219200","COUNTRY_CODE":"US","REF_FRAME":"TEME","OBJECT_TYPE":"PAYLOAD","ECCENTRICITY":"0.00012090","BSTAR":"0.00128480000000","INCLINATION":"53.2154","PERIOD":"95.437","MEAN_MOTION":"15.08845762","LAUNCH_DATE":"2022-10-05","MEAN_MOTION_DDOT":"0.0000000000000","PERIAPSIS":"538.891","APOAPSIS":"540.564","MEAN_ANOMALY":"264.3784","FILE":"3857581","ELEMENT_SET_NO":"999","ARG_OF_PERICENTER":"95.7346","DECAY_DATE":null,"RCS_SIZE":"LARGE","SEMIMAJOR_AXIS":"6917.863","MEAN_MOTION_DOT":"0.00020222","NORAD_CAT_ID":"53978","TIME_SYSTEM":"UTC","MEAN_ELEMENT_THEORY":"SGP4","RA_OF_ASC_NODE":"90.8597"},{"EPOCH":"2023-03-11T08:18:05.349600","REF_FRAME":"TEME","COUNTRY_CODE":"US","TLE_LINE2":"2 53979  53.2176  91.8104 0001621  62.5158 297.5998 15.08879655 24187","TLE_LINE1":"1 53979U 22125R   23070.34589525  .00028092  00000-0  17742-2 0  9992","GP_ID":"227859862","OBJECT_NAME":"STARLINK-5123","EPHEMERIS_TYPE":"0","OBJECT_ID":"2022-125R","SITE":"AFWTR","CENTER_NAME":"EARTH","REV_AT_EPOCH":"2418","CLASSIFICATION_TYPE":"U","MEAN_ELEMENT_THEORY":"SGP4","MEAN_MOTION_DOT":"0.00028092","NORAD_CAT_ID":"53979","TIME_SYSTEM":"UTC","SEMIMAJOR_AXIS":"6917.759","RA_OF_ASC_NODE":"91.8104","ARG_OF_PERICENTER":"62.5158","ELEMENT_SET_NO":"999","FILE":"3857581","MEAN_ANOMALY":"297.5998","APOAPSIS":"540.746","RCS_SIZE":"LARGE","DECAY_DATE":null,"LAUNCH_DATE":"2022-10-05","MEAN_MOTION":"15.08879655","PERIOD":"95.435","PERIAPSIS":"538.503","MEAN_MOTION_DDOT":"0.0000000000000","ECCENTRICITY":"0.00016210","OBJECT_TYPE":"PAYLOAD","INCLINATION":"53.2176","BSTAR":"0.00177420000000"},{"GP_ID":"227861289","OBJECT_ID":"2022-125S","OBJECT_NAME":"STARLINK-5133","EPHEMERIS_TYPE":"0","SITE":"AFWTR","REV_AT_EPOCH":"2428","CENTER_NAME":"EARTH","CLASSIFICATION_TYPE":"U","EPOCH":"2023-03-11T12:27:06.942240","REF_FRAME":"TEME","COUNTRY_CODE":"US","TLE_LINE2":"2 53980  53.2153  90.7614 0001415  77.1388 282.9762 15.08838773 24280","TLE_LINE1":"1 53980U 22125S   23070.51883035  .00000437  00000-0  45544-4 0  9992","LAUNCH_DATE":"2022-10-05","PERIOD":"95.438","MEAN_MOTION":"15.08838773","MEAN_MOTION_DDOT":"0.0000000000000","PERIAPSIS":"538.770","OBJECT_TYPE":"PAYLOAD","ECCENTRICITY":"0.00014150","BSTAR":"0.00004554400000","INCLINATION":"53.2153","MEAN_ELEMENT_THEORY":"SGP4","SEMIMAJOR_AXIS":"6917.884","TIME_SYSTEM":"UTC","MEAN_MOTION_DOT":"0.00000437","NORAD_CAT_ID":"53980","RA_OF_ASC_NODE":"90.7614","ELEMENT_SET_NO":"999","ARG_OF_PERICENTER":"77.1388","APOAPSIS":"540.728","FILE":"3857612","MEAN_ANOMALY":"282.9762","DECAY_DATE":null,"RCS_SIZE":"LARGE"},{"ECCENTRICITY":"0.00014220","OBJECT_TYPE":"PAYLOAD","BSTAR":"0.00043059000000","INCLINATION":"53.2188","MEAN_MOTION":"15.08844294","PERIOD":"95.437","LAUNCH_DATE":"2022-10-05","PERIAPSIS":"538.749","MEAN_MOTION_DDOT":"0.0000000000000","FILE":"3857581","MEAN_ANOMALY":"275.2591","APOAPSIS":"540.716","ELEMENT_SET_NO":"999","ARG_OF_PERICENTER":"84.8563","RCS_SIZE":"LARGE","DECAY_DATE":null,"MEAN_MOTION_DOT":"0.00006572","TIME_SYSTEM":"UTC","NORAD_CAT_ID":"53981","SEMIMAJOR_AXIS":"6917.867","MEAN_ELEMENT_THEORY":"SGP4","RA_OF_ASC_NODE":"76.1166","CENTER_NAME":"EARTH","REV_AT_EPOCH":"2441","SITE":"AFWTR","CLASSIFICATION_TYPE":"U","EPHEMERIS_TYPE":"0","OBJECT_NAME":"STARLINK-5149","OBJECT_ID":"2022-125T","GP_ID":"227858863","TLE_LINE2":"2 53981  53.2188  76.1166 0001422  84.8563 275.2591 15.08844294 24412","TLE_LINE1":"1 53981U 22125T   23070.45213687  .00006572  00000-0  43059-3 0  9990","EPOCH":"2023-03-11T10:51:04.625568","COUNTRY_CODE":"US","REF_FRAME":"TEME"}];
